CTC2_L_00616007-03
1 82583U 26992O   26037.47799769  .00000000  00000+0  00000-0 0  9999
2 82583  60.0000 180.0000 0000000   0.0000 144.0000  5.03557253    18
CTC2_L_00616007-04
1 82584U 22531CS  26037.47799769  .00000000  00000+0  00000-0 0  9995
2 82584  60.0000 180.0000 0000000   0.0000 180.0000  5.03557253    19
CTC2_L_00616007-05
1 82585U 22065YT  26037.47799769  .00000000  00000+0  00000-0 0  9998
2 82585  60.0000 180.0000 0000000   0.0000 216.0000  5.03557253    10
CTC2_L_00616007-06
1 82586U 26603PV  26037.47799769  .00000000  00000+0  00000-0 0  9991
2 82586  60.0000 180.0000 0000000   0.0000 252.0000  5.03557253    11
CTC2_L_00616007-07
1 82587U 25173DQ  26037.47799769  .00000000  00000+0  00000-0 0  9993
2 82587  60.0000 180.0000 0000000   0.0000 288.0000  5.03557253    11
CTC2_L_00616007-08
1 82588U 25775VC  26037.47799769  .00000000  00000+0  00000-0 0  9992
2 82588  60.0000 180.0000 0000000   0.0000 324.0000  5.03557253    13
CTC2_L_00616007-09
1 82589U 22270G   26037.47799769  .00000000  00000+0  00000-0 0  9990
2 82589  60.0000 180.0000 0000000   0.0000   0.0000  5.03557253    15
CTC2_L_00616007-10
1 82590U 23381HR  26037.47799769  .00000000  00000+0  00000-0 0  9996
2 82590  60.0000 180.0000 0000000   0.0000  36.0000  5.03557253    16
CTC2_L_00616008-01
1 82591U 26908MH  26037.47799769  .00000000  00000+0  00000-0 0  9995
2 82591  60.0000 210.0000 0000000   0.0000  84.0000  5.03557253    14
CTC2_L_00616008-02
1 82592U 22405FO  26037.47799769  .00000000  00000+0  00000-0 0  9994
2 82592  60.0000 210.0000 0000000   0.0000 120.0000  5.03557253    16
CTC2_L_00616008-03
1 82593U 23158MP  26037.47799769  .00000000  00000+0  00000-0 0  9991
2 82593  60.0000 210.0000 0000000   0.0000 156.0000  5.03557253    16
CTC2_L_00616008-04
1 82594U 26885PQ  26037.47799769  .00000000  00000+0  00000-0 0  9992
2 82594  60.0000 210.0000 0000000   0.0000 192.0000  5.03557253    17
CTC2_L_00616008-05
1 82595U 23150JE  26037.47799769  .00000000  00000+0  00000-0 0  9995
2 82595  60.0000 210.0000 0000000   0.0000 228.0000  5.03557253    18
CTC2_L_00616008-06
1 82596U 25405K   26037.47799769  .00000000  00000+0  00000-0 0  9991
2 82596  60.0000 210.0000 0000000   0.0000 264.0000  5.03557253    19
CTC2_L_00616008-07
1 82597U 24541GB  26037.47799769  .00000000  00000+0  00000-0 0  9992
2 82597  60.0000 210.0000 0000000   0.0000 300.0000  5.03557253    11
CTC2_L_00616008-08
1 82598U 26836XG  26037.47799769  .00000000  00000+0  00000-0 0  9992
2 82598  60.0000 210.0000 0000000   0.0000 336.0000  5.03557253    11
CTC2_L_00616008-09
1 82599U 25711QH  26037.47799769  .00000000  00000+0  00000-0 0  9994
2 82599  60.0000 210.0000 0000000   0.0000  12.0000  5.03557253    13
CTC2_L_00616008-10
1 82600U 26155EQ  26037.47799769  .00000000  00000+0  00000-0 0  9990
2 82600  60.0000 210.0000 0000000   0.0000  48.0000  5.03557253    15
CTC2_L_00616009-01
1 82601U 26408ID  26037.47799769  .00000000  00000+0  00000-0 0  9992
2 82601  60.0000 240.0000 0000000   0.0000  96.0000  5.03557253    12
CTC2_L_00616009-02
1 82602U 25216VV  26037.47799769  .00000000  00000+0  00000-0 0  9999
2 82602  60.0000 240.0000 0000000   0.0000 132.0000  5.03557253    14
CTC2_L_00616009-03
1 82603U 24416KK  26037.47799769  .00000000  00000+0  00000-0 0  9991
2 82603  60.0000 240.0000 0000000   0.0000 168.0000  5.03557253    14
CTC2_L_00616009-04
1 82604U 25983NC  26037.47799769  .00000000  00000+0  00000-0 0  9992
2 82604  60.0000 240.0000 0000000   0.0000 204.0000  5.03557253    16
CTC2_L_00616009-05
1 82605U 24726ZL  26037.47799769  .00000000  00000+0  00000-0 0  9997
2 82605  60.0000 240.0000 0000000   0.0000 240.0000  5.03557253    17
CTC2_L_00616009-06
1 82606U 22581GV  26037.47799769  .00000000  00000+0  00000-0 0  9995
2 82606  60.0000 240.0000 0000000   0.0000 276.0000  5.03557253    17
CTC2_L_00616009-07
1 82607U 26119WE  26037.47799769  .00000000  00000+0  00000-0 0  9997
2 82607  60.0000 240.0000 0000000   0.0000 312.0000  5.03557253    19
CTC2_L_00616009-08
1 82608U 26441BU  26037.47799769  .00000000  00000+0  00000-0 0  9996
2 82608  60.0000 240.0000 0000000   0.0000 348.0000  5.03557253    19
CTC2_L_00616009-09
1 82609U 22273LE  26037.47799769  .00000000  00000+0  00000-0 0  9996
2 82609  60.0000 240.0000 0000000   0.0000  24.0000  5.03557253    11
CTC2_L_00616009-10
1 82610U 23429FI  26037.47799769  .00000000  00000+0  00000-0 0  9992
2 82610  60.0000 240.0000 0000000   0.0000  60.0000  5.03557253    13
CTC2_L_00616010-01
1 82611U 22969LF  26037.47799769  .00000000  00000+0  00000-0 0  9991
2 82611  60.0000 270.0000 0000000   0.0000 108.0000  5.03557253    10
CTC2_L_00616010-02
1 82612U 22635TP  26037.47799769  .00000000  00000+0  00000-0 0  9992
2 82612  60.0000 270.0000 0000000   0.0000 144.0000  5.03557253    11
CTC2_L_00616010-03
1 82613U 25060MP  26037.47799769  .00000000  00000+0  00000-0 0  9998
2 82613  60.0000 270.0000 0000000   0.0000 180.0000  5.03557253    12
CTC2_L_00616010-04
1 82614U 22461HN  26037.47799769  .00000000  00000+0  00000-0 0  9991
2 82614  60.0000 270.0000 0000000   0.0000 216.0000  5.03557253    13
CTC2_L_00616010-05
1 82615U 23417ME  26037.47799769  .00000000  00000+0  00000-0 0  9994
2 82615  60.0000 270.0000 0000000   0.0000 252.0000  5.03557253    14
CTC2_L_00616010-06
1 82616U 22711F   26037.47799769  .00000000  00000+0  00000-0 0  9991
2 82616  60.0000 270.0000 0000000   0.0000 288.0000  5.03557253    14
CTC2_L_00616010-07
1 82617U 23063BY  26037.47799769  .00000000  00000+0  00000-0 0  9993
2 82617  60.0000 270.0000 0000000   0.0000 324.0000  5.03557253    16
CTC2_L_00616010-08
1 82618U 22242QF  26037.47799769  .00000000  00000+0  00000-0 0  9992
2 82618  60.0000 270.0000 0000000   0.0000   0.0000  5.03557253    18
CTC2_L_00616010-09
1 82619U 25883CZ  26037.47799769  .00000000  00000+0  00000-0 0  9997
2 82619  60.0000 270.0000 0000000   0.0000  36.0000  5.03557253    18
CTC2_L_00616010-10
1 82620U 26637NY  26037.47799769  .00000000  00000+0  00000-0 0  9997
2 82620  60.0000 270.0000 0000000   0.0000  72.0000  5.03557253    10
CTC2_L_00616011-01
1 82621U 23737NK  26037.47799769  .00000000  00000+0  00000-0 0  9996
2 82621  60.0000 300.0000 0000000   0.0000 120.0000  5.03557253    19
CTC2_L_00616011-02
1 82622U 26460IM  26037.47799769  .00000000  00000+0  00000-0 0  9993
2 82622  60.0000 300.0000 0000000   0.0000 156.0000  5.03557253    19
CTC2_L_00616011-03
1 82623U 25084WE  26037.47799769  .00000000  00000+0  00000-0 0  9995
2 82623  60.0000 300.0000 0000000   0.0000 192.0000  5.03557253    10
CTC2_L_00616011-04
1 82624U 23294QW  26037.47799769  .00000000  00000+0  00000-0 0  9997
2 82624  60.0000 300.0000 0000000   0.0000 228.0000  5.03557253    11
CTC2_L_00616011-05
1 82625U 25918ON  26037.47799769  .00000000  00000+0  00000-0 0  9993
2 82625  60.0000 300.0000 0000000   0.0000 264.0000  5.03557253    12
CTC2_L_00616011-06
1 82626U 23752DV  26037.47799769  .00000000  00000+0  00000-0 0  9998
2 82626  60.0000 300.0000 0000000   0.0000 300.0000  5.03557253    14
CTC2_L_00616011-07
1 82627U 24372UE  26037.47799769  .00000000  00000+0  00000-0 0  9998
2 82627  60.0000 300.0000 0000000   0.0000 336.0000  5.03557253    14
CTC2_L_00616011-08
1 82628U 23585RS  26037.47799769  .00000000  00000+0  00000-0 0  9994
2 82628  60.0000 300.0000 0000000   0.0000  12.0000  5.03557253    16
CTC2_L_00616011-09
1 82629U 26733ZS  26037.47799769  .00000000  00000+0  00000-0 0  9993
2 82629  60.0000 300.0000 0000000   0.0000  48.0000  5.03557253    16
CTC2_L_00616011-10
1 82630U 25416UR  26037.47799769  .00000000  00000+0  00000-0 0  9992
2 82630  60.0000 300.0000 0000000   0.0000  84.0000  5.03557253    18
CTC2_L_00616012-01
1 82631U 23595JG  26037.47799769  .00000000  00000+0  00000-0 0  9999
2 82631  60.0000 330.0000 0000000   0.0000 132.0000  5.03557253    16
CTC2_L_00616012-02
1 82632U 25691SB  26037.47799769  .00000000  00000+0  00000-0 0  9999
2 82632  60.0000 330.0000 0000000   0.0000 168.0000  5.03557253    16
CTC2_L_00616012-03
1 82633U 23289RV  26037.47799769  .00000000  00000+0  00000-0 0  9991
2 82633  60.0000 330.0000 0000000   0.0000 204.0000  5.03557253    18
CTC2_L_00616012-04
1 82634U 23338JE  26037.47799769  .00000000  00000+0  00000-0 0  9997
2 82634  60.0000 330.0000 0000000   0.0000 240.0000  5.03557253    19
CTC2_L_00616012-05
1 82635U 24685PR  26037.47799769  .00000000  00000+0  00000-0 0  9994
2 82635  60.0000 330.0000 0000000   0.0000 276.0000  5.03557253    19
CTC2_L_00616012-06
1 82636U 22877ON  26037.47799769  .00000000  00000+0  00000-0 0  9996
2 82636  60.0000 330.0000 0000000   0.0000 312.0000  5.03557253    11
CTC2_L_00616012-07
1 82637U 26264GL  26037.47799769  .00000000  00000+0  00000-0 0  9991
2 82637  60.0000 330.0000 0000000   0.0000 348.0000  5.03557253    11
CTC2_L_00616012-08
1 82638U 24229QB  26037.47799769  .00000000  00000+0  00000-0 0  9991
2 82638  60.0000 330.0000 0000000   0.0000  24.0000  5.03557253    13
CTC2_L_00616012-09
1 82639U 23291YO  26037.47799769  .00000000  00000+0  00000-0 0  9990
2 82639  60.0000 330.0000 0000000   0.0000  60.0000  5.03557253    14
CTC2_L_00616012-10
1 82640U 25896MD  26037.47799769  .00000000  00000+0  00000-0 0  9995
2 82640  60.0000 330.0000 0000000   0.0000  96.0000  5.03557253    15
